{
    "links": {
        "self": "http://www.neowsapp.com/rest/v1/neo/3742060?api_key=iIulBulltgU6a56xZRHN4H3l9WmuAYTsLGpBGhQ2"
    },
    "id": "3742060",
    "neo_reference_id": "3742060",
    "name": "(2016 CJ31)",
    "designation": "2016 CJ31",
    "nasa_jpl_url": "http://ssd.jpl.nasa.gov/sbdb.cgi?sstr=3742060",
    "absolute_magnitude_h": 27.6,
    "estimated_diameter": {
        "kilometers": {
            "estimated_diameter_min": 0.0080270317,
            "estimated_diameter_max": 0.0179489885
        },
        "meters": {
            "estimated_diameter_min": 8.0270316728,
            "estimated_diameter_max": 17.948988478
        },
        "miles": {
            "estimated_diameter_min": 0.0049877647,
            "estimated_diameter_max": 0.0111529809
        },
        "feet": {
            "estimated_diameter_min": 26.3354065935,
            "estimated_diameter_max": 58.8877593581
        }
    },
    "is_potentially_hazardous_asteroid": false,
    "close_approach_data": [
        {
            "close_approach_date": "1978-02-11",
            "close_approach_date_full": "1978-Feb-11 03:22",
            "epoch_date_close_approach": 256015320000,
            "relative_velocity": {
                "kilometers_per_second": "18.6093786901",
                "kilometers_per_hour": "66993.7632843762",
                "miles_per_hour": "41627.3191918948"
            },
            "miss_distance": {
                "astronomical": "0.1805834279",
                "lunar": "70.2469534531",
                "kilometers": "27014896.171138573",
                "miles": "16786278.0906873874"
            },
            "orbiting_body": "Earth"
        },
        {
            "close_approach_date": "2016-01-29",
            "close_approach_date_full": "2016-Jan-29 17:32",
            "epoch_date_close_approach": 1454088720000,
            "relative_velocity": {
                "kilometers_per_second": "13.2906281801",
                "kilometers_per_hour": "47846.2614482257",
                "miles_per_hour": "29729.8061759823"
            },
            "miss_distance": {
                "astronomical": "0.0064500028",
                "lunar": "2.5090510892",
                "kilometers": "964906.680374036",
                "miles": "599565.2089762568"
            },
            "orbiting_body": "Earth"
        },
        {
            "close_approach_date": "2016-01-29",
            "close_approach_date_full": "2016-Jan-29 22:01",
            "epoch_date_close_approach": 1454104860000,
            "relative_velocity": {
                "kilometers_per_second": "13.9868575698",
                "kilometers_per_hour": "50352.6872513326",
                "miles_per_hour": "31287.2016979183"
            },
            "miss_distance": {
                "astronomical": "0.0078032527",
                "lunar": "3.0354653003",
                "kilometers": "1167349.982991749",
                "miles": "725357.6441501762"
            },
            "orbiting_body": "Moon"
        },
        {
            "close_approach_date": "2089-09-10",
            "close_approach_date_full": "2089-Sep-10 15:00",
            "epoch_date_close_approach": 3777202800000,
            "relative_velocity": {
                "kilometers_per_second": "25.9250049039",
                "kilometers_per_hour": "93330.0176540022",
                "miles_per_hour": "57991.6434695104"
            },
            "miss_distance": {
                "astronomical": "0.4403187296",
                "lunar": "171.2839858144",
                "kilometers": "65870744.069265952",
                "miles": "40930182.4068640576"
            },
            "orbiting_body": "Earth"
        },
        {
            "close_approach_date": "2098-02-16",
            "close_approach_date_full": "2098-Feb-16 04:02",
            "epoch_date_close_approach": 4043361720000,
            "relative_velocity": {
                "kilometers_per_second": "20.5405204786",
                "kilometers_per_hour": "73945.8737229607",
                "miles_per_hour": "45947.0902585808"
            },
            "miss_distance": {
                "astronomical": "0.248847375",
                "lunar": "96.801628875",
                "kilometers": "37227037.25509125",
                "miles": "23131808.31410925"
            },
            "orbiting_body": "Earth"
        }
    ],
    "orbital_data": {
        "orbit_id": "3",
        "orbit_determination_date": "2017-04-06 08:28:35",
        "first_observation_date": "2016-02-01",
        "last_observation_date": "2016-02-05",
        "data_arc_in_days": 4,
        "observations_used": 9,
        "orbit_uncertainty": "8",
        "minimum_orbit_intersection": ".00500602",
        "jupiter_tisserand_invariant": "3.659",
        "epoch_osculation": "2457421.5",
        "eccentricity": ".5759534845206903",
        "semi_major_axis": "1.95640878710942",
        "inclination": "4.61667972681078",
        "ascending_node_longitude": "132.1220901263928",
        "orbital_period": "999.5115890825125",
        "perihelion_distance": ".8296083290268523",
        "perihelion_argument": "300.9266956898419",
        "aphelion_distance": "3.083209245191989",
        "perihelion_time": "2457378.808150995398",
        "mean_anomaly": "15.37657572911639",
        "mean_motion": ".3601759138485396",
        "equinox": "J2000",
        "orbit_class": {
            "orbit_class_type": "APO",
            "orbit_class_description": "Near-Earth asteroid orbits which cross the Earth’s orbit similar to that of 1862 Apollo",
            "orbit_class_range": "a (semi-major axis) > 1.0 AU; q (perihelion) < 1.017 AU"
        }
    },
    "is_sentry_object": false
}